start=new Date('2023-06-14T00:00:00.000Z').valueOf();
sats=[{"LAUNCH_DATE":"2022-09-19","MEAN_MOTION_DDOT":"0.0000000000000","TIME_SYSTEM":"UTC","APOAPSIS":"540.666","OBJECT_NAME":"STARLINK-4766","TLE_LINE1":"1 53840U 22114Y   23164.81487252 -.00000023  00000-0  16655-4 0  9996","MEAN_ANOMALY":"271.1905","NORAD_CAT_ID":"53840","COUNTRY_CODE":"US","EPOCH":"2023-06-13T19:33:24.985728","BSTAR":"0.00001665500000","EPHEMERIS_TYPE":"0","FILE":"3932371","PERIOD":"95.438","REF_FRAME":"TEME","OBJECT_ID":"2022-114Y","MEAN_MOTION":"15.08838794","SEMIMAJOR_AXIS":"6917.884","OBJECT_TYPE":"PAYLOAD","REV_AT_EPOCH":"4202","RCS_SIZE":"LARGE","INCLINATION":"53.2172","MEAN_ELEMENT_THEORY":"SGP4","MEAN_MOTION_DOT":"-0.00000023","GP_ID":"233873431","PERIAPSIS":"538.832","ARG_OF_PERICENTER":"88.9239","CLASSIFICATION_TYPE":"U","DECAY_DATE":null,"ELEMENT_SET_NO":"999","TLE_LINE2":"2 53840  53.2172 102.7919 0001325  88.9239 271.1905 15.08838794 42027","SITE":"AFETR","ECCENTRICITY":"0.00013250","CENTER_NAME":"EARTH","RA_OF_ASC_NODE":"102.7919"},{"MEAN_MOTION":"15.08837591","OBJECT_ID":"2022-114Z","SEMIMAJOR_AXIS":"6917.888","EPHEMERIS_TYPE":"0","REF_FRAME":"TEME","PERIOD":"95.438","FILE":"3932371","TLE_LINE1":"1 53841U 22114Z   23164.82128423  .00000176  00000-0  29155-4 0  9997","MEAN_ANOMALY":"265.0312","OBJECT_NAME":"STARLINK-4750","EPOCH":"2023-06-13T19:42:38.957472","BSTAR":"0.00002915500000","COUNTRY_CODE":"US","NORAD_CAT_ID":"53841","MEAN_MOTION_DDOT":"0.0000000000000","LAUNCH_DATE":"2022-09-19","TIME_SYSTEM":"UTC","APOAPSIS":"540.443","RA_OF_ASC_NODE":"102.8316","CENTER_NAME":"EARTH","ELEMENT_SET_NO":"999","DECAY_DATE":null,"PERIAPSIS":"539.062","ARG_OF_PERICENTER":"95.0794","CLASSIFICATION_TYPE":"U","ECCENTRICITY":"0.00009980","TLE_LINE2":"2 53841  53.2180 102.8316 0000998  95.0794 265.0312 15.08837591 42027","SITE":"AFETR","RCS_SIZE":"LARGE","REV_AT_EPOCH":"4202","OBJECT_TYPE":"PAYLOAD","MEAN_MOTION_DOT":"0.00000176","GP_ID":"233873680","MEAN_ELEMENT_THEORY":"SGP4","INCLINATION":"53.2180"},{"OBJECT_TYPE":"PAYLOAD","RCS_SIZE":"LARGE","REV_AT_EPOCH":"4192","MEAN_ELEMENT_THEORY":"SGP4","INCLINATION":"53.2171","GP_ID":"233841220","MEAN_MOTION_DOT":"-0.00000984","PERIAPSIS":"538.848","CLASSIFICATION_TYPE":"U","ARG_OF_PERICENTER":"108.5572","DECAY_DATE":null,"ELEMENT_SET_NO":"999","TLE_LINE2":"2 53842  53.2171 105.7161 0001299 108.5572 251.5562 15.08839496 41928","SITE":"AFETR","ECCENTRICITY":"0.00012990","CENTER_NAME":"EARTH","RA_OF_ASC_NODE":"105.7161","LAUNCH_DATE":"2022-09-19","MEAN_MOTION_DDOT":"0.0000000000000","TIME_SYSTEM":"UTC","APOAPSIS":"540.646","TLE_LINE1":"1 53842U 22114AA  23164.14414091 -.00000984  00000-0 -43765-4 0  9994","OBJECT_NAME":"STARLINK-4754","MEAN_ANOMALY":"251.5562","COUNTRY_CODE":"US","NORAD_CAT_ID":"53842","BSTAR":"-0.00004376500000","EPOCH":"2023-06-13T03:27:33.774624","EPHEMERIS_TYPE":"0","FILE":"3932134","REF_FRAME":"TEME","PERIOD":"95.438","OBJECT_ID":"2022-114AA","MEAN_MOTION":"15.08839496","SEMIMAJOR_AXIS":"6917.882"},{"EPOCH":"2023-06-13T19:37:20.737632","BSTAR":"0.00004774800000","COUNTRY_CODE":"US","NORAD_CAT_ID":"53843","MEAN_ANOMALY":"276.4049","TLE_LINE1":"1 53843U 22114AB  23164.81760113  .00000472  00000-0  47748-4 0  9993","OBJECT_NAME":"STARLINK-4769","APOAPSIS":"540.756","TIME_SYSTEM":"UTC","MEAN_MOTION_DDOT":"0.0000000000000","LAUNCH_DATE":"2022-09-19","SEMIMAJOR_AXIS":"6917.891","MEAN_MOTION":"15.08836558","OBJECT_ID":"2022-114AB","REF_FRAME":"TEME","PERIOD":"95.438","FILE":"3932371","EPHEMERIS_TYPE":"0","ECCENTRICITY":"0.00014460","SITE":"AFETR","TLE_LINE2":"2 53843  53.2180 102.8093 0001446  83.7108 276.4049 15.08836558 42028","ELEMENT_SET_NO":"999","DECAY_DATE":null,"ARG_OF_PERICENTER":"83.7108","PERIAPSIS":"538.756","CLASSIFICATION_TYPE":"U","MEAN_MOTION_DOT":"0.00000472","GP_ID":"233874179","MEAN_ELEMENT_THEORY":"SGP4","INCLINATION":"53.2180","RCS_SIZE":"LARGE","REV_AT_EPOCH":"4202","OBJECT_TYPE":"PAYLOAD","RA_OF_ASC_NODE":"102.8093","CENTER_NAME":"EARTH"},{"TIME_SYSTEM":"UTC","APOAPSIS":"540.653","LAUNCH_DATE":"2022-09-19","MEAN_MOTION_DDOT":"0.0000000000000","NORAD_CAT_ID":"53844","COUNTRY_CODE":"US","BSTAR":"-0.00002752400000","EPOCH":"2023-06-13T20:46:12.002880","MEAN_ANOMALY":"267.0999","TLE_LINE1":"1 53844U 22114AC  23164.86541670 -.00000726  00000-0 -27524-4 0  9998","OBJECT_NAME":"STARLINK-4745","FILE":"3932371","PERIOD":"95.438","REF_FRAME":"TEME","EPHEMERIS_TYPE":"0","OBJECT_ID":"2022-114AC","MEAN_MOTION":"15.08834904","SEMIMAJOR_AXIS":"6917.896","MEAN_ELEMENT_THEORY":"SGP4","INCLINATION":"53.2172","GP_ID":"233872931","MEAN_MOTION_DOT":"-0.00000726","OBJECT_TYPE":"PAYLOAD","RCS_SIZE":"LARGE","REV_AT_EPOCH":"4203","TLE_LINE2":"2 53844  53.2172 102.4003 0001290  93.0141 267.0999 15.08834904 42039","SITE":"AFETR","ECCENTRICITY":"0.00012900","PERIAPSIS":"538.869","ARG_OF_PERICENTER":"93.0141","CLASSIFICATION_TYPE":"U","DECAY_DATE":null,"ELEMENT_SET_NO":"999","CENTER_NAME":"EARTH","RA_OF_ASC_NODE":"102.4003"},{"CENTER_NAME":"EARTH","RA_OF_ASC_NODE":"105.4594","INCLINATION":"53.2164","MEAN_ELEMENT_THEORY":"SGP4","MEAN_MOTION_DOT":"0.00003020","GP_ID":"233840471","OBJECT_TYPE":"PAYLOAD","RCS_SIZE":"LARGE","REV_AT_EPOCH":"4193","SITE":"AFETR","TLE_LINE2":"2 53845  53.2164 105.4594 0000971  92.6727 267.4376 15.08838778 41933","ECCENTRICITY":"0.00009710","PERIAPSIS":"539.077","CLASSIFICATION_TYPE":"U","ARG_OF_PERICENTER":"92.6727","DECAY_DATE":null,"ELEMENT_SET_NO":"999","FILE":"3932134","PERIOD":"95.438","REF_FRAME":"TEME","EPHEMERIS_TYPE":"0","SEMIMAJOR_AXIS":"6917.884","MEAN_MOTION":"15.08838778","OBJECT_ID":"2022-114AD","APOAPSIS":"540.421","TIME_SYSTEM":"UTC","LAUNCH_DATE":"2022-09-19","MEAN_MOTION_DDOT":"0.0000000000000","NORAD_CAT_ID":"53845","COUNTRY_CODE":"US","BSTAR":"0.00020775000000","EPOCH":"2023-06-13T05:08:15.940896","TLE_LINE1":"1 53845U 22114AD  23164.21407339  .00003020  00000-0  20775-3 0  9999","OBJECT_NAME":"STARLINK-4753","MEAN_ANOMALY":"267.4376"},{"EPOCH":"2023-06-13T20:35:34.946304","BSTAR":"0.00004614000000","COUNTRY_CODE":"US","NORAD_CAT_ID":"53846","OBJECT_NAME":"STARLINK-4746","TLE_LINE1":"1 53846U 22114AE  23164.85804336  .00000447  00000-0  46140-4 0  9993","MEAN_ANOMALY":"272.6580","APOAPSIS":"540.583","TIME_SYSTEM":"UTC","MEAN_MOTION_DDOT":"0.0000000000000","LAUNCH_DATE":"2022-09-19","SEMIMAJOR_AXIS":"6917.889","OBJECT_ID":"2022-114AE","MEAN_MOTION":"15.08837302","REF_FRAME":"TEME","PERIOD":"95.438","FILE":"3932371","EPHEMERIS_TYPE":"0","ECCENTRICITY":"0.00011990","SITE":"AFETR","TLE_LINE2":"2 53846  53.2165 102.3550 0001199  87.4549 272.6580 15.08837302 42039","ELEMENT_SET_NO":"999","DECAY_DATE":null,"PERIAPSIS":"538.924","CLASSIFICATION_TYPE":"U","ARG_OF_PERICENTER":"87.4549","MEAN_MOTION_DOT":"0.00000447","GP_ID":"233874433","INCLINATION":"53.2165","MEAN_ELEMENT_THEORY":"SGP4","REV_AT_EPOCH":"4203","RCS_SIZE":"LARGE","OBJECT_TYPE":"PAYLOAD","RA_OF_ASC_NODE":"102.3550","CENTER_NAME":"EARTH"},{"ECCENTRICITY":"0.00011960","TLE_LINE2":"2 53847  53.2163 105.3950 0001196  90.2529 269.8600 15.08833297 41930","SITE":"AFETR","DECAY_DATE":null,"ELEMENT_SET_NO":"999","ARG_OF_PERICENTER":"90.2529","PERIAPSIS":"538.938","CLASSIFICATION_TYPE":"U","MEAN_MOTION_DOT":"-0.00000380","GP_ID":"233841473","MEAN_ELEMENT_THEORY":"SGP4","INCLINATION":"53.2163","REV_AT_EPOCH":"4193","RCS_SIZE":"LARGE","OBJECT_TYPE":"PAYLOAD","RA_OF_ASC_NODE":"105.3950","CENTER_NAME":"EARTH","EPOCH":"2023-06-13T04:57:39.032064","BSTAR":"-0.00000581690000","NORAD_CAT_ID":"53847","COUNTRY_CODE":"US","TLE_LINE1":"1 53847U 22114AF  23164.20670176 -.00000380  00000-0 -58169-5 0  9999","MEAN_ANOMALY":"269.8600","OBJECT_NAME":"STARLINK-4777","TIME_SYSTEM":"UTC","APOAPSIS":"540.593","MEAN_MOTION_DDOT":"0.0000000000000","LAUNCH_DATE":"2022-09-19","MEAN_MOTION":"15.08833297","OBJECT_ID":"2022-114AF","SEMIMAJOR_AXIS":"6917.901","PERIOD":"95.438","REF_FRAME":"TEME","FILE":"3932134","EPHEMERIS_TYPE":"0"},{"OBJECT_ID":"2022-114AG","MEAN_MOTION":"15.08838725","SEMIMAJOR_AXIS":"6917.884","EPHEMERIS_TYPE":"0","FILE":"3932371","PERIOD":"95.438","REF_FRAME":"TEME","TLE_LINE1":"1 53848U 22114AG  23164.85067660  .00000249  00000-0  33719-4 0  9994","OBJECT_NAME":"STARLINK-4780","MEAN_ANOMALY":"262.4717","COUNTRY_CODE":"US","NORAD_CAT_ID":"53848","EPOCH":"2023-06-13T20:24:58.458240","BSTAR":"0.00003371900000","LAUNCH_DATE":"2022-09-19","MEAN_MOTION_DDOT":"0.0000000000000","TIME_SYSTEM":"UTC","APOAPSIS":"540.380","RA_OF_ASC_NODE":"102.3087","CENTER_NAME":"EARTH","PERIAPSIS":"539.118","ARG_OF_PERICENTER":"97.6379","CLASSIFICATION_TYPE":"U","ELEMENT_SET_NO":"999","DECAY_DATE":null,"TLE_LINE2":"2 53848  53.2164 102.3087 0000912  97.6379 262.4717 15.08838725 42030","SITE":"AFETR","ECCENTRICITY":"0.00009120","OBJECT_TYPE":"PAYLOAD","REV_AT_EPOCH":"4203","RCS_SIZE":"LARGE","MEAN_ELEMENT_THEORY":"SGP4","INCLINATION":"53.2164","GP_ID":"233873432","MEAN_MOTION_DOT":"0.00000249"},{"EPHEMERIS_TYPE":"0","REF_FRAME":"TEME","PERIOD":"95.438","FILE":"3932371","MEAN_MOTION":"15.08835637","OBJECT_ID":"2022-114AH","SEMIMAJOR_AXIS":"6917.894","MEAN_MOTION_DDOT":"0.0000000000000","LAUNCH_DATE":"2022-09-19","TIME_SYSTEM":"UTC","APOAPSIS":"540.644","TLE_LINE1":"1 53849U 22114AH  23164.86173229 -.00000678  00000-0 -24504-4 0  9995","OBJECT_NAME":"STARLINK-4770","MEAN_ANOMALY":"264.7010","BSTAR":"-0.00002450400000","EPOCH":"2023-06-13T20:40:53.669856","COUNTRY_CODE":"US","NORAD_CAT_ID":"53849","CENTER_NAME":"EARTH","RA_OF_ASC_NODE":"102.3774","REV_AT_EPOCH":"4203","RCS_SIZE":"LARGE","OBJECT_TYPE":"PAYLOAD","GP_ID":"233873681","MEAN_MOTION_DOT":"-0.00000678","INCLINATION":"53.2181","MEAN_ELEMENT_THEORY":"SGP4","ELEMENT_SET_NO":"999","DECAY_DATE":null,"CLASSIFICATION_TYPE":"U","PERIAPSIS":"538.874","ARG_OF_PERICENTER":"95.4128","ECCENTRICITY":"0.00012790","TLE_LINE2":"2 53849  53.2181 102.3774 0001279  95.4128 264.7010 15.08835637 42038","SITE":"AFETR"}];
